SPACEBEE-58             
1 47464U 21006BD  22240.40704800  .00016674  00000+0  65099-3 0  9992
2 47464  97.4385 301.4264 0010500  28.3140 331.8667 15.25924673 88382
SPACEBEE-57             
1 47465U 21006BE  22240.10232190  .00005131  00000+0  27279-3 0  9992
2 47465  97.4323 296.6138 0006509  61.3806 298.8080 15.15696380 88066
SPACEBEE-44             
1 47466U 21006BF  22240.08432805  .00015068  00000+0  65420-3 0  9995
2 47466  97.4355 298.5632 0005736  52.7404 307.4354 15.22400689 88188
SPACEBEE-56             
1 47468U 21006BH  22239.61138537  .00011444  00000+0  50540-3 0  9990
2 47468  97.4367 298.0027 0005931  52.6618 307.5158 15.21882250 88101
SPACEBEE-45             
1 47470U 21006BK  22240.41400478  .00014093  00000+0  61425-3 0  9996
2 47470  97.4358 298.9248 0005884  51.0492 309.1268 15.22281310 88233
SPACEBEE-43             
1 47480U 21006BV  22240.14498275  .00015181  00000+0  65700-3 0  9998
2 47480  97.4352 298.6254 0005807  54.3220 305.8556 15.22506343 88196
SPACEBEE-87             
1 47703U 21015E   22240.21242117  .00034828  00000+0  86161-3 0  9999
2 47703  97.4120 318.3330 0008108 169.2548 190.8873 15.40339919 83291
SPACEBEE-86             
1 47704U 21015F   22240.19538823  .00040224  00000+0  96319-3 0  9992
2 47704  97.4103 318.4741 0008203 168.0554 192.0889 15.41297307 83285
SPACEBEE-85             
1 47705U 21015G   22240.18766161  .00039744  00000+0  94746-3 0  9997
2 47705  97.4104 318.4826 0007799 169.4979 190.6432 15.41437666 83301
SPACEBEE-84             
1 47706U 21015H   22240.17179963  .00040703  00000+0  96452-3 0  9998
2 47706  97.4101 318.5017 0007863 169.6894 190.4516 15.41612842 83304
SPACEBEE-83             
1 47707U 21015J   22240.16588421  .00041513  00000+0  97143-3 0  9999
2 47707  97.4089 318.4894 0007373 172.6871 187.4485 15.41991281 83305
SPACEBEE-82             
1 47708U 21015K   22240.19974506  .00045869  00000+0  10396-2 0  9998
2 47708  97.4094 318.7380 0007824 169.7753 190.3655 15.42924331 83329
SPACEBEE-81             
1 47709U 21015L   22240.21966110  .00047155  00000+0  10471-2 0  9998
2 47709  97.4095 318.8791 0007887 168.4077 191.7354 15.43528102 83252
SPACEBEE-78             
1 47710U 21015M   22240.19847287  .00053376  00000+0  11361-2 0  9991
2 47710  97.4092 319.0583 0007603 171.9850 188.1521 15.44756043 83341
SPACEBEE-76             
1 47711U 21015N   22240.19741445  .00061398  00000+0  12318-2 0  9997
2 47711  97.4085 319.3564 0007462 170.7860 189.3528 15.46457183 83364
SPACEBEE-80             
1 47712U 21015P   22240.18516316  .00050364  00000+0  10990-2 0  9999
2 47712  97.4102 318.9243 0007565 171.3309 188.8071 15.44033916 83339
SPACEBEE-77             
1 47714U 21015Q   22240.16770379  .00058731  00000+0  11952-2 0  9995
2 47714  97.4093 319.2556 0007515 170.3386 189.8009 15.46052246 83274
SPACEBEE-79             
1 47715U 21015R   22240.26908052  .00048944  00000+0  10756-2 0  9994
2 47715  97.4129 319.0456 0007412 171.8738 188.2631 15.43832129 83340
SPACEBEE-65             
1 48626U 21006ES  22240.11965906  .00018967  00000+0  73334-3 0  9995
2 48626  97.2024 285.8878 0011026  12.2514 347.8991 15.26210967 88324
SPACEBEE-64             
1 48627U 21006ET  22240.10175453  .00018849  00000+0  72467-3 0  9990
2 48627  97.2024 285.9103 0010926  11.5895 348.5594 15.26401269 88323
SPACEBEE-66             
1 48628U 21006EU  22240.09329758  .00017865  00000+0  69916-3 0  9990
2 48628  97.2024 285.7689 0011260  11.9430 348.2074 15.25816749 88313
SPACEBEE-67             
1 48629U 21006EV  22240.10763352  .00017095  00000+0  67229-3 0  9995
2 48629  97.2024 285.7504 0011376  12.7986 347.3539 15.25660860 88310
SPACEBEE-68             
1 48630U 21006EW  22240.12844372  .00017601  00000+0  69557-3 0  9990
2 48630  97.2024 285.7245 0011393  12.6897 347.4626 15.25492130 88314
SPACEBEE-69             
1 48631U 21006EX  22240.08229490  .00017587  00000+0  69894-3 0  9991
2 48631  97.2027 285.6419 0011555  12.5271 347.6253 15.25302752 88302
SPACEBEE-70             
1 48632U 21006EY  22240.10645168  .00016041  00000+0  64091-3 0  9997
2 48632  97.2024 285.6084 0011733  12.8824 347.2712 15.25140451 88305
SPACEBEE-71             
1 48633U 21006EZ  22240.07054867  .00017153  00000+0  68946-3 0  9992
2 48633  97.2023 285.5032 0011952  12.9656 347.1887 15.24922932 88295
SPACEBEE-72             
1 48634U 21006FA  22240.11356880  .00015193  00000+0  61758-3 0  9994
2 48634  97.2024 285.4532 0012383  12.3011 347.8527 15.24566395 88294
SPACEBEE-73             
1 48635U 21006FB  22240.07167816  .00016276  00000+0  66426-3 0  9999
2 48635  97.2024 285.3615 0012447  13.3530 346.8035 15.24417144 88283
SPACEBEE-74             
1 48636U 21006FC  22240.12785369  .00014611  00000+0  60497-3 0  9998
2 48636  97.2026 285.2894 0012852  13.5602 346.5979 15.23949549 88288
SPACEBEE-75             
1 48637U 21006FD  22240.56134277  .00013116  00000+0  54758-3 0  9995
2 48637  97.2022 285.6128 0013093  11.9301 348.2244 15.23691158 88346
SPACEBEENZ-10           
1 48882U 21059D   22239.89866723  .00009784  00000+0  46803-3 0  9995
2 48882  97.5608   9.6765 0007297 212.7734 147.3048 15.19168746 64792
SPACEBEE-100            
1 48883U 21059E   22239.87343290  .00005605  00000+0  28888-3 0  9994
2 48883  97.5634   9.1607 0007855 208.6956 151.3846 15.16759185 64759
SPACEBEE-101            
1 48884U 21059F   22239.88612789  .00005704  00000+0  29537-3 0  9990
2 48884  97.5636   9.1512 0007565 212.3341 147.7429 15.16587846 64754
SPACEBEE-102            
1 48886U 21059H   22239.87492142  .00005269  00000+0  27240-3 0  9995
2 48886  97.5636   9.1656 0007516 212.1554 147.9221 15.16680818 64750
SPACEBEENZ-9            
1 48887U 21059J   22240.36075288  .00010063  00000+0  48124-3 0  9992
2 48887  97.5609  10.1333 0007315 210.4320 149.6490 15.19170962 64860
SPACEBEE-103            
1 48888U 21059K   22239.90739790  .00006696  00000+0  34293-3 0  9995
2 48888  97.5638   9.2812 0007845 209.4255 150.6537 15.16904900 64764
SPACEBEENZ-7            
1 48889U 21059L   22239.59744634  .00008524  00000+0  40632-3 0  9990
2 48889  97.5625   9.5716 0007851 213.5517 146.5220 15.19330188 64757
SPACEBEE-104            
1 48890U 21059M   22239.87033847  .00006154  00000+0  31502-3 0  9993
2 48890  97.5634   9.1479 0007718 212.9397 147.1356 15.16956649 64752
SPACEBEENZ-8            
1 48891U 21059N   22239.86559010  .00009346  00000+0  44611-3 0  9999
2 48891  97.5626   9.8289 0007850 212.4879 147.5873 15.19255573 64790
SPACEBEE-106            
1 48893U 21059Q   22239.90430006  .00006225  00000+0  32009-3 0  9990
2 48893  97.5656   9.3891 0008282 212.3819 147.6907 15.16790112 64768
SPACEBEE-107            
1 48894U 21059R   22239.86538357  .00006838  00000+0  34675-3 0  9995
2 48894  97.5659   9.4445 0008122 211.4664 148.6084 15.17248183 64763
SPACEBEE-108            
1 48895U 21059S   22239.90116021  .00006035  00000+0  31055-3 0  9999
2 48895  97.5650   9.3732 0008358 211.7526 148.3203 15.16775265 64769
SPACEBEE-105            
1 48896U 21059T   22239.88893205  .00007173  00000+0  36771-3 0  9997
2 48896  97.5636   9.1213 0008097 202.1919 157.8965 15.16845698 64753
SPACEBEE-109            
1 48897U 21059U   22239.87755089  .00006248  00000+0  31845-3 0  9993
2 48897  97.5655   9.3990 0008468 210.3690 149.7054 15.17100672 64765
SPACEBEE-110            
1 48899U 21059W   22240.34261917  .00006454  00000+0  32599-3 0  9997
2 48899  97.5661  10.0394 0008650 206.8140 153.2647 15.17403732 64844
SPACEBEE-111            
1 48904U 21059AB  22239.87332523  .00006917  00000+0  34534-3 0  9997
2 48904  97.5666   9.7776 0009516 209.1005 150.9700 15.17776786 64782
SPACEBEE-92             
1 48932U 21059BF  22239.87101191  .00022770  00000+0  84592-3 0  9997
2 48932  97.5513  11.9578 0013517 207.0782 152.9753 15.27474994 64961
SPACEBEE-89             
1 48933U 21059BG  22240.37404334  .00025087  00000+0  90204-3 0  9991
2 48933  97.5509  12.6488 0013460 204.8116 155.2478 15.28530609 65056
SPACEBEE-96             
1 48934U 21059BH  22240.33027194  .00021050  00000+0  79918-3 0  9998
2 48934  97.5522  12.2796 0013745 205.0000 155.0574 15.26770259 65028
SPACEBEE-88             
1 48935U 21059BJ  22239.89951528  .00026397  00000+0  94223-3 0  9990
2 48935  97.5495  12.1839 0013365 205.9697 154.0873 15.28760380 64985
SPACEBEE-99             
1 48936U 21059BK  22240.32096623  .00019697  00000+0  76362-3 0  9996
2 48936  97.5527  12.1573 0013814 205.5074 154.5484 15.26087278 65015
SPACEBEE-94             
1 48937U 21059BL  22239.89755555  .00021716  00000+0  81531-3 0  9992
2 48937  97.5510  11.9088 0013578 206.5043 153.5502 15.27135899 64967
SPACEBEE-93             
1 48939U 21059BN  22239.88609111  .00024363  00000+0  88593-3 0  9995
2 48939  97.5505  12.0721 0013466 207.5811 152.4715 15.28166993 64974
SPACEBEE-91             
1 48940U 21059BP  22240.33168017  .00024212  00000+0  87851-3 0  9993
2 48940  97.5511  12.5569 0013493 205.4530 154.6046 15.28239737 65040
SPACEBEE-95             
1 48945U 21059BU  22239.87723047  .00022808  00000+0  84921-3 0  9999
2 48945  97.5520  11.9634 0013557 207.2823 152.7705 15.27399868 64969
SPACEBEE-97             
1 48946U 21059BV  22240.15595718  .00019631  00000+0  75254-3 0  9994
2 48946  97.5522  12.0557 0013761 205.6549 154.4008 15.26463240 64995
SPACEBEE-90             
1 48947U 21059BW  22240.32083690  .00025020  00000+0  90399-3 0  9991
2 48947  97.5508  12.5679 0013460 205.3398 154.7182 15.28372041 65048
SPACEBEE-98             
1 48949U 21059BY  22239.89110222  .00020169  00000+0  77190-3 0  9998
2 48949  97.5537  11.8263 0013724 207.3453 152.7064 15.26512165 64957
SPACEBEE-121            
1 52009U 22026B   22239.57063290  .00006019  00000+0  31072-3 0  9999
2 52009  97.5033 238.6131 0027631  32.6772 327.6164 15.16357240 24969
SPACEBEE-114            
1 52010U 22026C   22239.49897748  .00005945  00000+0  30491-3 0  9996
2 52010  97.5058 238.5958 0026853  34.3449 325.9514 15.16608727 24968
